{
  "norad_id": 58806,
  "name": "STARLINK-31138",
  "history": [
    {
      "epoch": "2026-03-28T06:07:04.546272Z",
      "apogee_km": 484.0048113464027,
      "perigee_km": 482.0932849133933,
      "latitude_deg": -7.510215657156314e-06,
      "longitude_deg": 143.08645907967872,
      "height_km": 482.97866946442866,
      "semi_major_axis_km": 6861.186048129897,
      "eccentricity": 0.0001393,
      "inclination_deg": 43.0041,
      "raan_deg": 60.5334,
      "arg_perigee_deg": 260.8185,
      "mean_anomaly_deg": 99.2509,
      "mean_motion_rev_day": 15.27580016
    }
  ]
}