{"fetched_at":"2026-03-29T02:12:04Z","count":15717,"tles":[{"name":"STARLINK-31138","line1":"1 58806U 24012V   26087.25491373  .00000872  00000+0  41224-4 0  9996","line2":"2 58806  43.0041  60.5334 0001393 260.8185  99.2509 15.27580016124071","category":"Starlink"}]}